S-NET B                 
1 43187U 18014H   22260.73998952  .00002152  00000+0  18618-3 0  9997
2 43187  97.6465 164.6345 0010154 356.7975   3.3181 14.98176201252738
S-NET A                 
1 43188U 18014J   22260.67350871  .00002146  00000+0  18566-3 0  9998
2 43188  97.6470 164.6381 0010181 357.1729   2.9434 14.98175541252728
S-NET C                 
1 43189U 18014K   22260.67438042  .00002177  00000+0  18831-3 0  9995
2 43189  97.6464 164.5577 0010155 357.3787   2.7380 14.98172627251274
FENGMANIU-1 (FMN-1)     
1 43192U 18015A   22260.93492000  .00041780  00000+0  94430-3 0  9995
2 43192  97.5460  48.8999 0009902  60.1436  59.1566 15.43009668257681
SHAONIAN XING           
1 43199U 18015H   22260.98270619  .00023356  00000+0  64642-3 0  9998
2 43199  97.5259  43.1778 0013143  72.9258  48.4707 15.36913993257643
LUOJIA-1 01             
1 43485U 18048B   22260.85485331  .00001251  00000+0  18248-3 0  9998
2 43485  97.9305 340.6202 0009838 260.7765  99.2322 14.77515465231511
SURFSAT                 
1 43614U 18070B   22260.91499784  .00051243  00000+0  58040-3 0  9991
2 43614  93.0182 138.1569 0009852  30.6884 329.4957 15.62184761225468
CP7 (DAVE)              
1 43615U 18070C   22260.63422456  .00043313  00000+0  53244-3 0  9993
2 43615  93.0174 137.7819 0010933  33.2194 326.9756 15.60059293225376
ELFIN-B                 
1 43616U 18070D   22260.64070506  .00529754  12029-3  11289-2 0  9998
2 43616  93.0010 140.0762 0002449  93.7544 266.4023 15.98689350225899
ELFIN-A                 
1 43617U 18070E   22260.40482189  .08850415  24936-6  74448-3 0  9996
2 43617  92.9905 141.7747 0008032 235.7611 124.2937 16.39679657225967
CZ-4B R/B               
1 43656U 18081B   22260.90704592  .00000211  00000+0  82137-4 0  9998
2 43656  99.4113  42.2644 0207534 238.5295 119.5455 14.30602613203573
CUBEBEL-1 (BSUSAT-1)    
1 43666U 18083E   22260.85006291  .00011123  00000+0  45237-3 0  9999
2 43666  97.4154 288.5479 0012993  16.5061  88.0375 15.24626015215554
CHANGSHAGAOXIN (TY 4-01)
1 43669U 18083H   22260.86197711  .00010468  00000+0  44772-3 0  9995
2 43669  97.4112 284.2527 0009710  18.6953  83.0177 15.22973089215362
TEN-KOH                 
1 43677U 18084G   22260.87828746  .00001238  00000+0  12994-3 0  9991
2 43677  97.9765  31.8431 0015045 331.2702  28.7686 14.91298599211452
DIWATA-2B               
1 43678U 18084H   22260.91799762  .00000672  00000+0  71568-4 0  9996
2 43678  97.9842  35.3415 0009700 348.5278  11.5729 14.92300839211641
STARS-AO                
1 43679U 18084J   22260.90102877  .00002009  00000+0  19449-3 0  9996
2 43679  97.9870  37.4858 0008628 352.1468   7.9615 14.93895325211741
AUTCUBE 2               
1 43681U 18084K   22260.89152316  .00001388  00000+0  13847-3 0  9995
2 43681  97.9833  35.9856 0008892 347.3373  12.7621 14.93200657211646
IRVINE01                
1 43693U 18088D   22260.37265331  .00040136  00000+0  87929-3 0  9993
2 43693  85.0247 248.2387 0014986 118.4857 241.7908 15.43810175214372
ES'HAIL 2               
1 43700U 18090A   22260.86229962  .00000138  00000+0  00000+0 0  9998
2 43700   0.0116 128.5433 0002502  90.6558 113.8037  1.00274670 13950
FACSAT-1                
1 43721U 18096C   22260.85470076  .00027303  00000+0  69581-3 0  9996
2 43721  97.3455 340.7479 0013661  84.0432  53.0662 15.39418514212170
CENTAURI-2              
1 43722U 18096D   22260.73159748  .00031409  00000+0  69023-3 0  9997
2 43722  97.3499 343.1895 0012142  79.0048 281.2565 15.43877983212292
3CAT-1                  
1 43728U 18096K   22260.79967480  .00030242  00000+0  66651-3 0  9997
2 43728  97.3508 344.0271 0012039  81.5500 278.7112 15.43801836212342
INNOSAT-2               
1 43738U 18096V   22260.96862047  .00100206  00000+0  12562-2 0  9999
2 43738  97.3607 352.3080 0009529  67.9235 347.3203 15.59368267212871
REAKTOR HELLO WORLD     
1 43743U 18096AA  22260.77820511  .00014045  00000+0  40172-3 0  9998
2 43743  97.3468 340.3524 0015672  89.3595 270.9445 15.35954363212124
ELYSIUM STAR 2 & LFF    
1 43760U 18099C   22260.85125227  .00005081  00000+0  41937-3 0  9991
2 43760  97.6198 327.4098 0011645 308.6163  51.4017 14.99380132206960
2018-099D               
1 43761U 18099D   22260.90961870  .00000864  00000+0  81888-4 0  9994
2 43761  97.6151 325.1409 0013578 324.3503  35.6810 14.96060756206847
AISTECHSAT 2            
1 43768U 18099L   22260.74527084  .00001462  00000+0  13514-3 0  9993
2 43768  97.6089 323.4442 0010171 326.3644  33.6931 14.96048415206486
FOX-1CLIFF (AO-95)      
1 43770U 18099N   22260.72187739  .00002693  00000+0  23988-3 0  9996
2 43770  97.6120 324.6588 0012935 331.5998  28.4518 14.96804066206811
RANGE-A                 
1 43772U 18099Q   22260.87513475  .00003737  00000+0  32478-3 0  9998
2 43772  97.6246 326.7089 0012016 317.6758  42.3536 14.97542245206869
RANGE-B                 
1 43773U 18099R   22260.73886143  .00001928  00000+0  17540-3 0  9992
2 43773  97.6053 323.4052 0012004 319.3697  40.6628 14.96302722206796
2018-099T               
1 43775U 18099T   22260.66729760  .00002014  00000+0  18330-3 0  9992
2 43775  97.6129 324.6559 0013155 323.6618  36.3709 14.96235226206792
MOVE-II                 
1 43780U 18099Y   22260.86230110  .00004401  00000+0  37387-3 0  9991
2 43780  97.6160 326.1589 0011103 326.0429  34.0082 14.98336017206893
SNUSAT-2                
1 43782U 18099AA  22260.69260204  .00001510  00000+0  13627-3 0  9990
2 43782  97.6128 325.1174 0011355 316.7582  43.2748 14.96946206206833
SNUGLITE                
1 43784U 18099AC  22260.84976595  .00002548  00000+0  22497-3 0  9993
2 43784  97.6081 324.8987 0013410 322.3977  37.6307 14.97191406206884
ITASAT 1                
1 43786U 18099AE  22260.84135482  .00001856  00000+0  16643-3 0  9994
2 43786  97.6144 325.7425 0013869 321.9210  38.1031 14.96898259206874
KAZSCISAT-1             
1 43787U 18099AF  22260.71209542  .00003477  00000+0  29672-3 0  9997
2 43787  97.6060 324.8928 0012278 315.1742  44.8488 14.98294480206911
EAGLET-I                
1 43790U 18099AJ  22260.72763242  .00002115  00000+0  18844-3 0  9991
2 43790  97.6145 326.1740 0011926 327.6777  32.3714 14.97014702206595
ESEO                    
1 43792U 18099AL  22260.90101923  .00000647  00000+0  62158-4 0  9991
2 43792  97.6095 325.4204 0012306 324.4904  35.5497 14.96345982206654
CSIM-FD                 
1 43793U 18099AM  22260.86068201  .00004166  00000+0  34820-3 0  9992
2 43793  97.6163 327.1500 0010246 313.9489  46.0888 14.99007627206724
ASTROCAST 0.1           
1 43798U 18099AS  22260.72120256  .00003626  00000+0  31048-3 0  9990
2 43798  97.6146 326.7801 0010556 299.3285  60.6882 14.98143873206925
JY1SAT (JO-97)          
1 43803U 18099AX  22260.69246121  .00001883  00000+0  16633-3 0  9999
2 43803  97.6113 325.3828 0013735 322.4726  37.5536 14.97481294206874
SUOMI-100               
1 43804U 18099AY  22260.85055864  .00002527  00000+0  22222-3 0  9997
2 43804  97.6101 325.4385 0013504 321.0364  38.9884 14.97358001206902
AL-FARABI 2             
1 43805U 18099AZ  22260.93319032  .00004278  00000+0  36620-3 0  9999
2 43805  97.6126 326.1129 0013098 319.9892  40.0364 14.98043877206948
CENTAURI-1              
1 43809U 18099BD  22260.90265568  .00001514  00000+0  13628-3 0  9997
2 43809  97.6116 325.7761 0014043 322.4372  37.5868 14.97004376206604
CHOMPTT                 
1 43855U 18104G   22260.31281116  .00008208  00000+0  29073-3 0  9995
2 43855  85.0383 349.8546 0012908 254.2737 105.7085 15.28864816208750
DAVINCI                 
1 43857U 18104J   22260.71792328  .00047756  00000+0  10493-2 0  9999
2 43857  85.0276 346.3301 0008224 263.9678  96.0639 15.43787452209060
UWE-4                   
1 43880U 18111E   22260.69224841  .00003777  00000+0  31944-3 0  9990
2 43880  97.6590 165.3759 0012484  22.4080 337.7685 14.98585551203513
ZACUBE-2                
1 43907U 18111AH  22260.96077779  .00008948  00000+0  31848-3 0  9994
2 43907  97.1756 143.9830 0021229 108.3471 349.5076 15.28963458207428
MICRODRAGON             
1 43935U 19003D   22260.86262071  .00005846  00000+0  22410-3 0  9995
2 43935  97.1326 286.8394 0015894 200.0806 159.9810 15.26760716203792
AOBA VELOX-IV           
1 43940U 19003J   22260.84541411  .00028451  00000+0  67122-3 0  9993
2 43940  97.1193 294.1987 0017047 163.4470 196.7338 15.41694822204348
M6P                     
1 44109U 19018AF  22260.77437749  .00021583  00000+0  48270-3 0  9999
2 44109  97.3915 346.0280 0045130 152.9427 207.4187 15.42404216193674
FORMOSAT 7-4            
1 44350U 19036M   22260.89986423  .00004181  00000+0  23026-3 0  9995
2 44350  23.9997 107.5239 0005955 105.3758 254.7404 15.09902123177459
PAINANI 1               
1 44365U 19037A   22260.85904876  .00057269  00000+0  65906-3 0  9998
2 44365  44.9944 203.2180 0008570 100.1402 260.0460 15.61190683181640
METEOR-M2 2             
1 44387U 19038A   22260.84918701  .00000013  00000+0  25244-4 0  9991
2 44387  98.7318 220.9261 0001951  40.2797 319.8533 14.23719853166559
VDNH-80                 
1 44392U 19038G   22260.85929491  .00009664  00000+0  47173-3 0  9991
2 44392  97.6434 231.6173 0019378 166.3168 251.2966 15.18329787176869
D-STAR ONE (LIGHTSAT)   
1 44393U 19038H   22260.92335908  .00008905  00000+0  43397-3 0  9995
2 44393  97.6453 231.5858 0019579 166.1380 194.0395 15.18411781177066
AMGU-1 (AMURSAT)        
1 44394U 19038J   22260.90994586  .00011216  00000+0  54032-3 0  9994
2 44394  97.6405 231.5502 0019304 166.2188 193.9576 15.18747396177066
DOT-1                   
1 44399U 19038P   22260.88647966  .00005147  00000+0  27062-3 0  9992
2 44399  97.6494 230.0967 0022698 174.9759 185.1706 15.15906730176948
SOKRAT                  
1 44404U 19038U   22260.85035631  .00008907  00000+0  43276-3 0  9998
2 44404  97.6442 231.1180 0019595 167.9668 192.2038 15.18515199177036
